0 RADUGA 5
1 11343U 79035A   13281.67950411 -.00000113  00000-0  10000-3 0  2728
2 11343 014.0406 336.4372 0005901 127.6150 232.4394 01.00297590 82857
0 RADUGA 5
1 11343U 79035A   13282.67649815 -.00000116  00000-0  10000-3 0  2736
2 11343 014.0401 336.4294 0005475 126.7522 233.3030 01.00297871 82864
0 RADUGA 5
1 11343U 79035A   13282.67654419  .00000000  00000-0  10000-3 0  2744
2 11343 014.0395 336.4299 0005515 129.7486 230.3041 01.00293354 82869
0 RADUGA 5
1 11343U 79035A   13283.67349383 -.00000120  00000-0  10000-3 0  2740
2 11343 014.0394 336.4168 0005922 126.8578 233.1933 01.00297574 82875
0 RADUGA 5
1 11343U 79035A   13287.66146375 -.00000131  00000-0  10000-3 0  2752
2 11343 014.0368 336.3759 0006160 126.6717 233.3736 01.00297563 82915
0 RADUGA 5
1 11343U 79035A   13290.65241642 -.00000133  00000-0  10000-3 0  2761
2 11343 014.0348 336.3449 0006001 129.3206 230.7081 01.00297538 82945
0 RADUGA 5
1 11343U 79035A   13293.64339678 -.00000131  00000-0  10000-3 0  2779
2 11343 014.0328 336.3138 0006040 129.9269 230.0997 01.00297527 82976
